LANDSAT 9               
1 49260U 21088A   24139.91762686  .00001458  00000+0  33362-3 0  9991
2 49260  98.1879 210.0306 0001145  83.2512 276.8817 14.57112491140435
